$$SOE
2461295.500000000, A.D. 2026-Sep-12 00:00:00.0000, -2.389939214060683E+08, 2.205032739154448E+08, -3.435833101744244E+07,
2461302.500000000, A.D. 2026-Sep-19 00:00:00.0000, -2.437619884869848E+08, 2.107978322086807E+08, -3.391498475953687E+07,
2461309.500000000, A.D. 2026-Sep-26 00:00:00.0000, -2.481823222283888E+08, 2.007918176683466E+08, -3.342323590875079E+07,
2461316.500000000, A.D. 2026-Oct-03 00:00:00.0000, -2.522383715041097E+08, 1.904912221214828E+08, -3.288240795224157E+07,
2461323.500000000, A.D. 2026-Oct-10 00:00:00.0000, -2.559129205208533E+08, 1.799026666823753E+08, -3.229182842910675E+07,
2461330.500000000, A.D. 2026-Oct-17 00:00:00.0000, -2.591880518141957E+08, 1.690334846249692E+08, -3.165083295545653E+07,
2461337.500000000, A.D. 2026-Oct-24 00:00:00.0000, -2.620451096923543E+08, 1.578918146394521E+08, -3.095877012671376E+07,
2461344.500000000, A.D. 2026-Oct-31 00:00:00.0000, -2.644646647207810E+08, 1.464867057718223E+08, -3.021500746923390E+07,
2461351.500000000, A.D. 2026-Nov-07 00:00:00.0000, -2.664264798194339E+08, 1.348282356476519E+08, -2.941893865196437E+07,
2461358.500000000, A.D. 2026-Nov-14 00:00:00.0000, -2.679094789585660E+08, 1.229276445644378E+08, -2.856999212240206E+07,
2461365.500000000, A.D. 2026-Nov-21 00:00:00.0000, -2.688917218009974E+08, 1.107974880054830E+08, -2.766764120212141E+07,
2461372.500000000, A.D. 2026-Nov-28 00:00:00.0000, -2.693503872657760E+08, 9.845180661510007E+07, -2.671141609969412E+07,
2461379.500000000, A.D. 2026-Dec-05 00:00:00.0000, -2.692617649026043E+08, 8.590631519175249E+07, -2.570091857908886E+07,
2461386.500000000, A.D. 2026-Dec-12 00:00:00.0000, -2.686012570733860E+08, 7.317861613766341E+07, -2.463583944820592E+07,
2461393.500000000, A.D. 2026-Dec-19 00:00:00.0000, -2.673433978264493E+08, 6.028843975658215E+07, -2.351597916399210E+07,
2461400.500000000, A.D. 2026-Dec-26 00:00:00.0000, -2.654618936238226E+08, 4.725791290118147E+07, -2.234127215520318E+07,
2461407.500000000, A.D. 2027-Jan-02 00:00:00.0000, -2.629296918780226E+08, 3.411185797889720E+07, -2.111181551686851E+07,
2461414.500000000, A.D. 2027-Jan-09 00:00:00.0000, -2.597190848764925E+08, 2.087812413905519E+07, -1.982790276924428E+07,
2461421.500000000, A.D. 2027-Jan-16 00:00:00.0000, -2.558018584906914E+08, 7.587951744885485E+06, -1.849006343387197E+07,
2461428.500000000, A.D. 2027-Jan-23 00:00:00.0000, -2.511494970680525E+08, -5.723629958906465E+06, -1.709910923327816E+07,
2461435.500000000, A.D. 2027-Jan-30 00:00:00.0000, -2.457334580210170E+08, -1.901737383212553E+07, -1.565618774700145E+07,
2461442.500000000, A.D. 2027-Feb-06 00:00:00.0000, -2.395255318226852E+08, -3.224935852808226E+07, -1.416284429926111E+07,
2461449.500000000, A.D. 2027-Feb-13 00:00:00.0000, -2.324983064975497E+08, -4.537051176753855E+07, -1.262109257251170E+07,
2461456.500000000, A.D. 2027-Feb-20 00:00:00.0000, -2.246257599698489E+08, -5.832612722441703E+07, -1.103349419855380E+07,
2461463.500000000, A.D. 2027-Feb-27 00:00:00.0000, -2.158840017403207E+08, -7.105539829738325E+07, -9.403247727870721E+06,
2461470.500000000, A.D. 2027-Mar-06 00:00:00.0000, -2.062521844129592E+08, -8.349099568711078E+07, -7.734286454817634E+06,
2461477.500000000, A.D. 2027-Mar-13 00:00:00.0000, -1.957136087300647E+08, -9.555872654587725E+07, -6.031383143118724E+06,
2461484.500000000, A.D. 2027-Mar-20 00:00:00.0000, -1.842570404794929E+08, -1.071773290112977E+08, -4.300258571309425E+06,
2461491.500000000, A.D. 2027-Mar-27 00:00:00.0000, -1.718782466629826E+08, -1.182584704711305E+08, -2.547689062491074E+06,
2461498.500000000, A.D. 2027-Apr-03 00:00:00.0000, -1.585817420545731E+08, -1.287070325323640E+08, -7.816057809686735E+05,
2461505.500000000, A.D. 2027-Apr-10 00:00:00.0000, -1.443827126883942E+08, -1.384217786295806E+08, 9.888242159150243E+05,
2461512.500000000, A.D. 2027-Apr-17 00:00:00.0000, -1.293090484104697E+08, -1.472965074291168E+08, 2.753148166898370E+06,
2461519.500000000, A.D. 2027-Apr-24 00:00:00.0000, -1.134033726203712E+08, -1.552217912675765E+08, 4.499624777419679E+06,
2461526.500000000, A.D. 2027-May-01 00:00:00.0000, -9.672490640828355E+07, -1.620873772019643E+08, 6.215285918711632E+06,
2461533.500000000, A.D. 2027-May-08 00:00:00.0000, -7.935095343055175E+07, -1.677852819511060E+08, 7.886080374395557E+06,
2461540.500000000, A.D. 2027-May-15 00:00:00.0000, -6.137775389457117E+07, -1.722135381250452E+08, 9.497114229941934E+06,
2461547.500000000, A.D. 2027-May-22 00:00:00.0000, -4.292044272851145E+07, -1.752804523578524E+08, 1.103299512954413E+07,
2461554.500000000, A.D. 2027-May-29 00:00:00.0000, -2.411187177133463E+07, -1.769091182275298E+08, 1.247827585858238E+07,
2461561.500000000, A.D. 2027-Jun-05 00:00:00.0000, -5.100143368559522E+06, -1.770418103610055E+08, 1.381797839709081E+07,
2461568.500000000, A.D. 2027-Jun-12 00:00:00.0000, 1.395515300870611E+07, -1.756438112840029E+08, 1.503816351453441E+07,
2461575.500000000, A.D. 2027-Jun-19 00:00:00.0000, 3.288783019979738E+07, -1.727062116693321E+08, 1.612649703950437E+07,
2461582.500000000, A.D. 2027-Jun-26 00:00:00.0000, 5.153076270637142E+07, -1.682472975351076E+08, 1.707275682288392E+07,
2461589.500000000, A.D. 2027-Jul-03 00:00:00.0000, 6.972181439345756E+07, -1.623122959480183E+08, 1.786922697989675E+07,
2461596.500000000, A.D. 2027-Jul-10 00:00:00.0000, 8.730946932025741E+07, -1.549714660954436E+08, 1.851093882053353E+07,
2461603.500000000, A.D. 2027-Jul-17 00:00:00.0000, 1.041576394794292E+08, -1.463167469435278E+08, 1.899573857333094E+07,
2461610.500000000, A.D. 2027-Jul-24 00:00:00.0000, 1.201492560490678E+08, -1.364573535591381E+08, 1.932418578902460E+07,
2461617.500000000, A.D. 2027-Jul-31 00:00:00.0000, 1.351884418923844E+08, -1.255148127096403E+08, 1.949930759056183E+07,
2461624.500000000, A.D. 2027-Aug-07 00:00:00.0000, 1.492012633219722E+08, -1.136179319340347E+08, 1.952624844405558E+07,
2461631.500000000, A.D. 2027-Aug-14 00:00:00.0000, 1.621352244122002E+08, -1.008981223379006E+08, 1.941186083190976E+07,
2461638.500000000, A.D. 2027-Aug-21 00:00:00.0000, 1.739577775622180E+08, -8.748537488589904E+07, 1.916427928069950E+07,
2461645.500000000, A.D. 2027-Aug-28 00:00:00.0000, 1.846541689654026E+08, -7.350504878496477E+07, 1.879251230225317E+07,
2461652.500000000, A.D. 2027-Sep-04 00:00:00.0000, 1.942249206855902E+08, -5.907550762987678E+07, 1.830607674365762E+07,
2461659.500000000, A.D. 2027-Sep-11 00:00:00.0000, 2.026832030056255E+08, -4.430655131511357E+07, 1.771468823040576E+07,
2461666.500000000, A.D. 2027-Sep-18 00:00:00.0000, 2.100522884634246E+08, -2.929853580900229E+07, 1.702801238183918E+07,
2461673.500000000, A.D. 2027-Sep-25 00:00:00.0000, 2.163632145421508E+08, -1.414204735921906E+07, 1.625547504589579E+07,
2461680.500000000, A.D. 2027-Oct-02 00:00:00.0000, 2.216527258249159E+08, 1.082004376546617E+06, 1.540612572641604E+07,
2461687.500000000, A.D. 2027-Oct-09 00:00:00.0000, 2.259615229854461E+08, 1.630199733341995E+07, 1.448854627362238E+07,
2461694.500000000, A.D. 2027-Oct-16 00:00:00.0000, 2.293328156867260E+08, 3.145501561620367E+07, 1.351079629296823E+07,
2461701.500000000, A.D. 2027-Oct-23 00:00:00.0000, 2.318111577026882E+08, 4.648615756003620E+07, 1.248038709910567E+07,
2461708.500000000, A.D. 2027-Oct-30 00:00:00.0000, 2.334415325853437E+08, 6.134779537352479E+07, 1.140427701992520E+07,
2461715.500000000, A.D. 2027-Nov-06 00:00:00.0000, 2.342686528714792E+08, 7.599883135863344E+07, 1.028888221578380E+07,
2461722.500000000, A.D. 2027-Nov-13 00:00:00.0000, 2.343364353524992E+08, 9.040397817251863E+07, 9.140098183942746E+06,
2461729.500000000, A.D. 2027-Nov-20 00:00:00.0000, 2.336876224562665E+08, 1.045330793960744E+08, 7.963327725936525E+06,
2461736.500000000, A.D. 2027-Nov-27 00:00:00.0000, 2.323635222944696E+08, 1.183604836728708E+08, 6.763512615577392E+06,
2461743.500000000, A.D. 2027-Dec-04 00:00:00.0000, 2.304038405197912E+08, 1.318644778525891E+08, 5.545167135985717E+06,
2461750.500000000, A.D. 2027-Dec-11 00:00:00.0000, 2.278465827455399E+08, 1.450267787541812E+08, 4.312411968906827E+06,
2461757.500000000, A.D. 2027-Dec-18 00:00:00.0000, 2.247280108772751E+08, 1.578320812437036E+08, 3.069007360586569E+06,
2461764.500000000, A.D. 2027-Dec-25 00:00:00.0000, 2.210826398847574E+08, 1.702676591300887E+08, 1.818384879612789E+06,
2461771.500000000, A.D. 2028-Jan-01 00:00:00.0000, 2.169432642379012E+08, 1.823230145850422E+08, 5.636773544174358E+05,
$$EOE